QIANFAN-1               
1 60379U 24140A   25280.92337802  .00000058  00000+0  71207-4 0  9990
2 60379  88.9753 306.1069 0019004  50.1470 310.1349 13.50975613 58467
QIANFAN-2               
1 60380U 24140B   25280.95211929  .00000068  00000+0  86749-4 0  9994
2 60380  88.9739 305.9522 0013466  26.4149 333.7686 13.50967763 58528
QIANFAN-3               
1 60381U 24140C   25280.96040554  .00000062  00000+0  77672-4 0  9999
2 60381  88.9732 306.0889 0015001  37.4387 322.7807 13.50967813 58432
QIANFAN-4               
1 60382U 24140D   25281.00978593  .00000048  00000+0  56300-4 0  9998
2 60382  88.9754 305.9649 0013778  28.5540 331.6363 13.50974812 58567
QIANFAN-5               
1 60383U 24140E   25280.91104413  .00000061  00000+0  76176-4 0  9998
2 60383  88.9731 306.1197 0016590  47.3642 312.8905 13.50970972 58411
QIANFAN-6               
1 60384U 24140F   25281.00572424  .00000056  00000+0  68494-4 0  9999
2 60384  88.9757 305.8384 0014088  34.0080 326.1971 13.50972463 58624
QIANFAN-7               
1 60385U 24140G   25280.99796413  .00000383  00000+0  14991-3 0  9998
2 60385  88.9762 301.4592 0012688 254.3261 105.6533 14.27572690 61010
QIANFAN-8               
1 60386U 24140H   25281.01389551  .00000065  00000+0  82118-4 0  9998
2 60386  88.9759 306.0740 0017589  34.4526 325.7762 13.50970587 58476
